IRIDIUM 921 [-]         
1 24873U 97034E   23263.95285142  .00016586  00000+0  65975-3 0  9999
2 24873  86.3855  60.1864 0005234 179.6775 180.4475 15.25154299434106
IRIDIUM 26 [-]          
1 24903U 97043A   23263.92911499  .00000706  00000+0  23640-3 0  9991
2 24903  86.4013  17.1228 0002240  88.5395 271.6058 14.35999631366014
IRIDIUM 22 [-]          
1 24907U 97043E   23263.84726974  .00000653  00000+0  22290-3 0  9999
2 24907  86.4013  20.1777 0002120  93.7665 266.3773 14.34907806365630
DUMMY MASS 1 [-]        
1 24925U 97048A   23264.50552074  .00000757  00000+0  83849-4 0  9999
2 24925  86.3307  68.5355 0005154 219.9494 140.1352 14.85825815411094
DUMMY MASS 2 [-]        
1 24926U 97048B   23264.43123799  .00000773  00000+0  86170-4 0  9998
2 24926  86.3305  70.0669 0005645 236.4348 123.6338 14.85587622410872
IRIDIUM 29 [-]          
1 24944U 97051A   23263.86615445  .00000589  00000+0  19877-3 0  9996
2 24944  86.3950  50.1607 0002156  98.1191 262.0250 14.35370642362326
IRIDIUM 33 [-]          
1 24946U 97051C   23263.92761582  .00000510  00000+0  17543-3 0  9991
2 24946  86.3867  49.4137 0007795   6.5904 353.5393 14.34110858361674
IRIDIUM 28 [-]          
1 24948U 97051E   23263.90833609  .00000737  00000+0  24581-3 0  9992
2 24948  86.3961  48.0234 0002152  81.0697 279.0744 14.36292455362627
